{"fetched_at":"2026-03-29T16:36:15Z","count":15609,"tles":[{"name":"STARLINK-32640","line1":"1 62198U 24229G   26087.65198159  .00016918  00000+0  62253-3 0  9997","line2":"2 62198  43.0010 163.4384 0001065 262.2196  97.8534 15.27598395 73465","category":"Starlink"}]}