{
  "norad_id": 62198,
  "name": "STARLINK-32640",
  "history": [
    {
      "epoch": "2026-03-28T15:38:51.209376",
      "apogee_km": 483.72534329974224,
      "perigee_km": 482.26268738989165,
      "latitude_deg": -12.796253566789991,
      "longitude_deg": 102.39023264008574,
      "semi_major_axis_km": 6861.131015344817,
      "eccentricity": 0.00010659,
      "inclination_deg": 43.001,
      "raan_deg": 163.4384,
      "arg_perigee_deg": 262.2196,
      "mean_anomaly_deg": 97.8534,
      "mean_motion_rev_day": 15.27598395
    }
  ]
}